NORAD_CAT_ID,OBJECT_NAME,OBJECT_TYPE,EPOCH,MEAN_MOTION,ECCENTRICITY,INCLINATION,RA_OF_ASC_NODE,ARG_OF_PERICENTER,MEAN_ANOMALY,BSTAR,MEAN_MOTION_DOT,MEAN_MOTION_DDOT,TLE_LINE0,TLE_LINE1,TLE_LINE2,SEMIMAJOR_AXIS,PERIOD,APOGEE,PERIGEE,DECAYED
52832.0,STARLINK-4083,PAYLOAD,2023-12-02 18:30:37,15.08864638,0.0001374,53.2173,150.7942,100.4656,259.6491,0.00023413,3.443e-05,0.0,0 STARLINK-4083,1 52832U 22062C   23336.77126793  .00003443  00000-0  23413-3 0  9991,2 52832  53.2173 150.7942 0001374 100.4656 259.6491 15.08864638 81282,6917.805,95.436,540.621,538.72,0.0
52832.0,STARLINK-4083,PAYLOAD,2023-12-03 11:59:53,15.08838628,0.0001476,53.2178,147.523,105.6412,254.4743,1.5529e-05,-4.1e-07,0.0,0 STARLINK-4083,1 52832U 22062C   23337.49992872 -.00000041  00000-0  15529-4 0  9992,2 52832  53.2178 147.5230 0001476 105.6412 254.4743 15.08838628 81396,6917.885,95.438,540.771,538.729,0.0
52832.0,STARLINK-4083,PAYLOAD,2023-12-03 18:21:27,15.08825198,0.0001478,53.2171,146.332,93.3863,266.7298,-8.5633e-05,-1.65e-05,0.0,0 STARLINK-4083,1 52832U 22062C   23337.76490127 -.00001650  00000-0 -85633-4 0  9999,2 52832  53.2171 146.3320 0001478  93.3863 266.7298 15.08825198 81435,6917.926,95.438,540.813,538.768,0.0
52832.0,STARLINK-4083,PAYLOAD,2023-12-04 11:50:42,15.08840477,0.0001661,53.2177,143.0605,119.5015,240.6143,-0.00026086,-4.437e-05,0.0,0 STARLINK-4083,1 52832U 22062C   23338.49354275 -.00004437  00000-0 -26086-3 0  9995,2 52832  53.2177 143.0605 0001661 119.5015 240.6143 15.08840477 81544,6917.879,95.438,540.893,538.595,0.0
52832.0,STARLINK-4083,PAYLOAD,2023-12-05 11:41:29,15.08824396,0.0001621,53.2176,138.6017,91.005,269.1128,0.00016087,2.272e-05,0.0,0 STARLINK-4083,1 52832U 22062C   23339.48714486  .00002272  00000-0  16087-3 0  9992,2 52832  53.2176 138.6017 0001621  91.0050 269.1128 15.08824396 81203,6917.928,95.439,540.914,538.672,0.0
52832.0,STARLINK-4083,PAYLOAD,2023-12-05 19:38:24,15.08830214,0.0001671,53.2179,137.1141,97.0253,263.0929,0.00019153,2.761e-05,0.0,0 STARLINK-4083,1 52832U 22062C   23339.81834295  .00002761  00000-0  19153-3 0  9990,2 52832  53.2179 137.1141 0001671  97.0253 263.0929 15.08830214 81741,6917.91,95.438,540.931,538.619,0.0
52832.0,STARLINK-4083,PAYLOAD,2023-12-06 09:56:52,15.08843704,0.0001392,53.2176,134.4375,93.6388,266.4764,7.6747e-05,9.34e-06,0.0,0 STARLINK-4083,1 52832U 22062C   23340.41449593  .00000934  00000-0  76747-4 0  9994,2 52832  53.2176 134.4375 0001392  93.6388 266.4764 15.08843704 81830,6917.869,95.437,540.697,538.771,0.0
52832.0,STARLINK-4083,PAYLOAD,2023-12-07 09:47:39,15.0884406,0.0001437,53.2177,129.9768,96.1133,264.0023,7.8323e-05,9.59e-06,0.0,0 STARLINK-4083,1 52832U 22062C   23341.40809540  .00000959  00000-0  78323-4 0  9995,2 52832  53.2177 129.9768 0001437  96.1133 264.0023 15.08844060 81492,6917.868,95.437,540.727,538.739,0.0
52832.0,STARLINK-4083,PAYLOAD,2023-12-08 09:38:26,15.08839701,0.000153,53.218,125.5164,94.0427,266.074,1.7844e-05,-4e-08,0.0,0 STARLINK-4083,1 52832U 22062C   23342.40169867 -.00000004  00000-0  17844-4 0  9990,2 52832  53.2180 125.5164 0001530  94.0427 266.0740 15.08839701 82131,6917.881,95.438,540.805,538.688,0.0
52832.0,STARLINK-4083,PAYLOAD,2023-12-09 12:39:59,15.08843422,0.0001511,53.218,120.4619,92.7188,267.3977,7.3025e-05,8.75e-06,0.0,0 STARLINK-4083,1 52832U 22062C   23343.52777701  .00000875  00000-0  73025-4 0  9994,2 52832  53.2180 120.4619 0001511  92.7188 267.3977 15.08843422 81813,6917.87,95.437,540.78,538.69,0.0
52832.0,STARLINK-4083,PAYLOAD,2023-12-10 14:06:10,15.08838779,0.0001346,53.2184,115.7063,89.9415,270.1732,3.3896e-05,2.52e-06,0.0,0 STARLINK-4083,1 52832U 22062C   23344.58761829  .00000252  00000-0  33896-4 0  9996,2 52832  53.2184 115.7063 0001346  89.9415 270.1732 15.08838779 81971,6917.884,95.438,540.68,538.818,0.0
52832.0,STARLINK-4083,PAYLOAD,2023-12-10 15:41:33,15.08838604,0.0001399,53.2184,115.4086,95.7891,264.3261,3.1512e-05,2.14e-06,0.0,0 STARLINK-4083,1 52832U 22062C   23344.65385823  .00000214  00000-0  31512-4 0  9991,2 52832  53.2184 115.4086 0001399  95.7891 264.3261 15.08838604 82479,6917.885,95.438,540.717,538.782,0.0
52832.0,STARLINK-4083,PAYLOAD,2023-12-11 13:56:57,15.08839352,0.0001455,53.219,111.2464,97.5336,262.5822,3.5051e-05,2.7e-06,0.0,0 STARLINK-4083,1 52832U 22062C   23345.58121843  .00000270  00000-0  35051-4 0  9998,2 52832  53.2190 111.2464 0001455  97.5336 262.5822 15.08839352 82123,6917.882,95.438,540.754,538.741,0.0
52832.0,STARLINK-4083,PAYLOAD,2023-12-11 15:32:20,15.08840568,0.000148,53.2188,110.9487,99.3245,260.7915,4.3637e-05,4.07e-06,0.0,0 STARLINK-4083,1 52832U 22062C   23345.64745730  .00000407  00000-0  43637-4 0  9993,2 52832  53.2188 110.9487 0001480  99.3245 260.7915 15.08840568 82133,6917.879,95.438,540.767,538.72,0.0
52832.0,STARLINK-4083,PAYLOAD,2023-12-12 12:12:21,15.08835176,0.0001568,53.2192,107.0818,106.933,253.1834,1.8818e-05,1.1e-07,0.0,0 STARLINK-4083,1 52832U 22062C   23346.50858275  .00000011  00000-0  18818-4 0  9992,2 52832  53.2192 107.0818 0001568 106.9330 253.1834 15.08835176 82753,6917.895,95.438,540.845,538.675,0.0
52832.0,STARLINK-4083,PAYLOAD,2023-12-12 13:47:44,15.08834232,0.0001536,53.2192,106.7852,104.4278,255.6884,2.2412e-05,6.9e-07,0.0,0 STARLINK-4083,1 52832U 22062C   23346.57482352  .00000069  00000-0  22412-4 0  9996,2 52832  53.2192 106.7852 0001536 104.4278 255.6884 15.08834232 82277,6917.898,95.438,540.826,538.7,0.0
52832.0,STARLINK-4083,PAYLOAD,2023-12-12 15:23:07,15.08833634,0.0001447,53.2188,106.4875,97.8097,262.3059,1.3094e-05,-8e-07,0.0,0 STARLINK-4083,1 52832U 22062C   23346.64106460 -.00000080  00000-0  13094-4 0  9997,2 52832  53.2188 106.4875 0001447  97.8097 262.3059 15.08833634 82284,6917.9,95.438,540.766,538.764,0.0
52832.0,STARLINK-4083,PAYLOAD,2023-12-13 12:03:08,15.08842719,0.0001383,53.2185,102.6216,102.3275,257.7872,4.2767e-05,3.93e-06,0.0,0 STARLINK-4083,1 52832U 22062C   23347.50217882  .00000393  00000-0  42767-4 0  9999,2 52832  53.2185 102.6216 0001383 102.3275 257.7872 15.08842719 82901,6917.872,95.437,540.694,538.78,0.0
52832.0,STARLINK-4083,PAYLOAD,2023-12-13 13:38:31,15.08846086,0.000128,53.2181,102.3234,86.7699,273.344,5.0516e-05,5.16e-06,0.0,0 STARLINK-4083,1 52832U 22062C   23347.56841693  .00000516  00000-0  50516-4 0  9996,2 52832  53.2181 102.3234 0001280  86.7699 273.3440 15.08846086 82428,6917.862,95.437,540.612,538.841,0.0
52832.0,STARLINK-4083,PAYLOAD,2023-12-13 15:13:54,15.08847972,0.0001292,53.2182,102.0247,81.3654,278.7485,6.3361e-05,7.21e-06,0.0,0 STARLINK-4083,1 52832U 22062C   23347.63465540  .00000721  00000-0  63361-4 0  9997,2 52832  53.2182 102.0247 0001292  81.3654 278.7485 15.08847972 82439,6917.856,95.437,540.615,538.827,0.0
52832.0,STARLINK-4083,PAYLOAD,2023-12-14 11:53:55,15.08837737,0.0001406,53.2184,98.1594,68.1413,291.9728,3.6411e-05,2.92e-06,0.0,0 STARLINK-4083,1 52832U 22062C   23348.49578394  .00000292  00000-0  36411-4 0  9993,2 52832  53.2184  98.1594 0001406  68.1413 291.9728 15.08837737 83058,6917.887,95.438,540.725,538.78,0.0
52832.0,STARLINK-4083,PAYLOAD,2023-12-14 13:29:19,15.08817825,0.0001846,53.2194,97.8639,55.8242,304.2925,0.0003225,4.845e-05,0.0,0 STARLINK-4083,1 52832U 22062C   23348.56202778  .00004845  00000-0  32250-3 0  9995,2 52832  53.2194  97.8639 0001846  55.8242 304.2925 15.08817825 82575,6917.948,95.439,541.09,538.536,0.0
52832.0,STARLINK-4083,PAYLOAD,2023-12-14 15:04:42,15.08817435,0.000194,53.2197,97.5658,54.7969,305.3204,0.00037441,5.672e-05,0.0,0 STARLINK-4083,1 52832U 22062C   23348.62826729  .00005672  00000-0  37441-3 0  9996,2 52832  53.2197  97.5658 0001940  54.7969 305.3204 15.08817435 83070,6917.949,95.439,541.156,538.472,0.0
52832.0,STARLINK-4083,PAYLOAD,2023-12-15 13:20:06,15.08839711,0.0001963,53.22,93.3986,55.0034,305.1142,-7.4153e-05,-1.468e-05,0.0,0 STARLINK-4083,1 52832U 22062C   23349.55562981 -.00001468  00000-0 -74153-4 0  9999,2 52832  53.2200  93.3986 0001963  55.0034 305.1142 15.08839711 82726,6917.881,95.438,541.104,538.388,0.0
52832.0,STARLINK-4083,PAYLOAD,2023-12-15 14:55:29,15.08839131,0.0001969,53.2201,93.1037,57.4554,302.6629,-9.5035e-06,-4.39e-06,0.0,0 STARLINK-4083,1 52832U 22062C   23349.62186790 -.00000439  00000-0 -95035-5 0  9997,2 52832  53.2201  93.1037 0001969  57.4554 302.6629 15.08839131 83225,6917.883,95.438,541.11,538.386,0.0
52832.0,STARLINK-4083,PAYLOAD,2023-12-16 13:10:53,15.08844318,0.0001947,53.2197,88.9429,58.9031,301.2152,5.3727e-05,5.67e-06,0.0,0 STARLINK-4083,1 52832U 22062C   23350.54922474  .00000567  00000-0  53727-4 0  9998,2 52832  53.2197  88.9429 0001947  58.9031 301.2152 15.08844318 82877,6917.867,95.437,541.079,538.385,0.0
52832.0,STARLINK-4083,PAYLOAD,2023-12-17 13:01:40,15.08840961,0.0001598,53.2191,84.4864,82.192,277.9253,5.4953e-05,5.87e-06,0.0,0 STARLINK-4083,1 52832U 22062C   23351.54282657  .00000587  00000-0  54953-4 0  9995,2 52832  53.2191  84.4864 0001598  82.1920 277.9253 15.08840961 83022,6917.877,95.437,540.848,538.637,0.0
52832.0,STARLINK-4083,PAYLOAD,2023-12-18 11:17:03,15.08854358,0.0001514,53.2192,80.3235,89.4318,270.6848,7.306e-05,8.75e-06,0.0,0 STARLINK-4083,1 52832U 22062C   23352.47017559  .00000875  00000-0  73060-4 0  9995,2 52832  53.2192  80.3235 0001514  89.4318 270.6848 15.08854358 83653,6917.837,95.437,540.749,538.654,0.0
52832.0,STARLINK-4083,PAYLOAD,2023-12-19 11:07:50,15.08840938,0.0001701,53.2192,75.8591,118.9892,241.1271,8.9089e-07,-2.74e-06,0.0,0 STARLINK-4083,1 52832U 22062C   23353.46378332 -.00000274  00000-0  89089-6 0  9998,2 52832  53.2192  75.8591 0001701 118.9892 241.1271 15.08840938 83809,6917.878,95.437,540.919,538.566,0.0
52832.0,STARLINK-4083,PAYLOAD,2023-12-19 12:43:14,15.0884082,0.0001497,53.219,75.5647,110.1211,249.9942,-4.9465e-06,-3.67e-06,0.0,0 STARLINK-4083,1 52832U 22062C   23353.53002422 -.00000367  00000-0 -49465-5 0  9997,2 52832  53.2190  75.5647 0001497 110.1211 249.9942 15.08840820 83325,6917.878,95.438,540.778,538.707,0.0
